SL-3 R/B                
1 13403U 82079B   26017.59945205  .00005041  00000+0  20500-3 0  9991
2 13403  81.1456 253.3787 0025132 341.8037  18.2294 15.24052245369916
SL-14 R/B               
1 13553U 82092B   26017.63041365  .00000446  00000+0  47304-4 0  9997
2 13553  82.5674 189.1436 0021790 109.3236 344.5356 14.86596287321345
SL-3 R/B                
1 13819U 83010B   26017.61041359  .00012631  00000+0  27016-3 0  9990
2 13819  81.1028  64.7963 0016434 220.9644 139.0366 15.44529967350057
SL-3 R/B                
1 14208U 83075B   26017.60485452  .00010831  00000+0  29896-3 0  9997
2 14208  97.6110  20.3168 0024121  55.4717 304.8799 15.36971243322301
COSMOS 1536             
1 14699U 84013A   26017.42219093  .00006007  00000+0  25306-3 0  9992
2 14699  82.5463 158.7646 0015739 102.4298 257.8701 15.23031844264819
SL-14 R/B               
1 14820U 84027B   26017.51575008  .00000414  00000+0  44559-4 0  9992
2 14820  82.5430 293.0102 0018916 139.1058 221.1582 14.85917230240038
SL-8 R/B                
1 15483U 85006B   26017.67735437  .00000246  00000+0  90456-4 0  9997
2 15483  74.0466 355.0102 0019794 281.3233 252.2110 14.37747628146696
SL-12 R/B(2)            
1 15772U 85042D   26017.62460941  .00000061  00000+0  48916-4 0  9997
2 15772  71.1065 195.6096 0036282 208.4270 221.5642 14.21962835107139
SL-14 R/B               
1 15945U 85069B   26017.51606717  .00000367  00000+0  38753-4 0  9996
2 15945  82.5251  73.0665 0018891   6.8537 353.2934 14.86366808165238
SL-16 R/B               
1 16182U 85097B   26017.64510336 -.00000194  00000+0 -73054-4 0  9999
2 16182  71.0014 248.0143 0008823 319.9885  70.9099 14.16591856 80007
SL-14 R/B               
1 16496U 86006B   26017.50633351  .00000616  00000+0  62536-4 0  9996
2 16496  82.5289 307.9016 0078273  82.4843 278.5257 14.86724776141604
COSMOS 1743             
1 16719U 86034A   26017.34345265  .00036082  00000+0  54490-3 0  9996
2 16719  82.5363 127.5475 0005461 120.9897 239.1894 15.54548324172261
