CCSDS_OMM_VERS = 2.0
CREATION_DATE  = 
ORIGINATOR     = 

OBJECT_NAME    = SL-3 R/B
OBJECT_ID      = 1982-079B
CENTER_NAME    = EARTH
REF_FRAME      = TEME
TIME_SYSTEM    = UTC
MEAN_ELEMENT_THEORY = SGP/SGP4

EPOCH          = 2026-01-17T14:23:12.657120
MEAN_MOTION    = 15.24052245
ECCENTRICITY   = .00251327
INCLINATION    = 81.1456
RA_OF_ASC_NODE = 253.3787
ARG_OF_PERICENTER = 341.8037
MEAN_ANOMALY   = 18.2294

EPHEMERIS_TYPE = 0
CLASSIFICATION_TYPE = U
NORAD_CAT_ID   = 13403
ELEMENT_SET_NO = 999
REV_AT_EPOCH   = 36991
BSTAR          = .20500137E-3
MEAN_MOTION_DOT = .5041E-4
MEAN_MOTION_DDOT = 0

CCSDS_OMM_VERS = 2.0
CREATION_DATE  = 
ORIGINATOR     = 

OBJECT_NAME    = SL-14 R/B
OBJECT_ID      = 1982-092B
CENTER_NAME    = EARTH
REF_FRAME      = TEME
TIME_SYSTEM    = UTC
MEAN_ELEMENT_THEORY = SGP/SGP4

EPOCH          = 2026-01-17T15:07:47.739360
MEAN_MOTION    = 14.86596287
ECCENTRICITY   = .00217906
INCLINATION    = 82.5674
RA_OF_ASC_NODE = 189.1436
ARG_OF_PERICENTER = 109.3236
MEAN_ANOMALY   = 344.5356

EPHEMERIS_TYPE = 0
CLASSIFICATION_TYPE = U
NORAD_CAT_ID   = 13553
ELEMENT_SET_NO = 999
REV_AT_EPOCH   = 32134
BSTAR          = .47304406E-4
MEAN_MOTION_DOT = .446E-5
MEAN_MOTION_DDOT = 0

CCSDS_OMM_VERS = 2.0
CREATION_DATE  = 
ORIGINATOR     = 

OBJECT_NAME    = SL-3 R/B
OBJECT_ID      = 1983-010B
CENTER_NAME    = EARTH
REF_FRAME      = TEME
TIME_SYSTEM    = UTC
MEAN_ELEMENT_THEORY = SGP/SGP4

EPOCH          = 2026-01-17T14:38:59.734176
MEAN_MOTION    = 15.44529967
ECCENTRICITY   = .00164343
INCLINATION    = 81.1028
RA_OF_ASC_NODE = 64.7963
ARG_OF_PERICENTER = 220.9644
MEAN_ANOMALY   = 139.0366

EPHEMERIS_TYPE = 0
CLASSIFICATION_TYPE = U
NORAD_CAT_ID   = 13819
ELEMENT_SET_NO = 999
REV_AT_EPOCH   = 35005
BSTAR          = .27015938E-3
MEAN_MOTION_DOT = .12631E-3
MEAN_MOTION_DDOT = 0

CCSDS_OMM_VERS = 2.0
CREATION_DATE  = 
ORIGINATOR     = 

OBJECT_NAME    = SL-3 R/B
OBJECT_ID      = 1983-075B
CENTER_NAME    = EARTH
REF_FRAME      = TEME
TIME_SYSTEM    = UTC
MEAN_ELEMENT_THEORY = SGP/SGP4

EPOCH          = 2026-01-17T14:30:59.430528
MEAN_MOTION    = 15.36971243
ECCENTRICITY   = .00241211
INCLINATION    = 97.6110
RA_OF_ASC_NODE = 20.3168
ARG_OF_PERICENTER = 55.4717
MEAN_ANOMALY   = 304.8799

EPHEMERIS_TYPE = 0
CLASSIFICATION_TYPE = U
NORAD_CAT_ID   = 14208
ELEMENT_SET_NO = 999
REV_AT_EPOCH   = 32230
BSTAR          = .29896459E-3
MEAN_MOTION_DOT = .10831E-3
MEAN_MOTION_DDOT = 0

CCSDS_OMM_VERS = 2.0
CREATION_DATE  = 
ORIGINATOR     = 

OBJECT_NAME    = COSMOS 1536
OBJECT_ID      = 1984-013A
CENTER_NAME    = EARTH
REF_FRAME      = TEME
TIME_SYSTEM    = UTC
MEAN_ELEMENT_THEORY = SGP/SGP4

EPOCH          = 2026-01-17T10:07:57.296352
MEAN_MOTION    = 15.23031844
ECCENTRICITY   = .00157399
INCLINATION    = 82.5463
RA_OF_ASC_NODE = 158.7646
ARG_OF_PERICENTER = 102.4298
MEAN_ANOMALY   = 257.8701

EPHEMERIS_TYPE = 0
CLASSIFICATION_TYPE = U
NORAD_CAT_ID   = 14699
ELEMENT_SET_NO = 999
REV_AT_EPOCH   = 26481
BSTAR          = .25306193E-3
MEAN_MOTION_DOT = .6007E-4
MEAN_MOTION_DDOT = 0

CCSDS_OMM_VERS = 2.0
CREATION_DATE  = 
ORIGINATOR     = 

OBJECT_NAME    = SL-14 R/B
OBJECT_ID      = 1984-027B
CENTER_NAME    = EARTH
REF_FRAME      = TEME
TIME_SYSTEM    = UTC
MEAN_ELEMENT_THEORY = SGP/SGP4

EPOCH          = 2026-01-17T12:22:40.806912
MEAN_MOTION    = 14.85917230
ECCENTRICITY   = .00189169
INCLINATION    = 82.5430
RA_OF_ASC_NODE = 293.0102
ARG_OF_PERICENTER = 139.1058
MEAN_ANOMALY   = 221.1582

EPHEMERIS_TYPE = 0
CLASSIFICATION_TYPE = U
NORAD_CAT_ID   = 14820
ELEMENT_SET_NO = 999
REV_AT_EPOCH   = 24003
BSTAR          = .44558795E-4
MEAN_MOTION_DOT = .414E-5
MEAN_MOTION_DDOT = 0

CCSDS_OMM_VERS = 2.0
CREATION_DATE  = 
ORIGINATOR     = 

OBJECT_NAME    = SL-8 R/B
OBJECT_ID      = 1985-006B
CENTER_NAME    = EARTH
REF_FRAME      = TEME
TIME_SYSTEM    = UTC
MEAN_ELEMENT_THEORY = SGP/SGP4

EPOCH          = 2026-01-17T16:15:23.417568
MEAN_MOTION    = 14.37747628
ECCENTRICITY   = .00197949
INCLINATION    = 74.0466
RA_OF_ASC_NODE = 355.0102
ARG_OF_PERICENTER = 281.3233
MEAN_ANOMALY   = 252.2110

EPHEMERIS_TYPE = 0
CLASSIFICATION_TYPE = U
NORAD_CAT_ID   = 15483
ELEMENT_SET_NO = 999
REV_AT_EPOCH   = 14669
BSTAR          = .90455534E-4
MEAN_MOTION_DOT = .246E-5
MEAN_MOTION_DDOT = 0

CCSDS_OMM_VERS = 2.0
CREATION_DATE  = 
ORIGINATOR     = 

OBJECT_NAME    = SL-12 R/B(2)
OBJECT_ID      = 1985-042D
CENTER_NAME    = EARTH
REF_FRAME      = TEME
TIME_SYSTEM    = UTC
MEAN_ELEMENT_THEORY = SGP/SGP4

EPOCH          = 2026-01-17T14:59:26.253024
MEAN_MOTION    = 14.21962835
ECCENTRICITY   = .00362822
INCLINATION    = 71.1065
RA_OF_ASC_NODE = 195.6096
ARG_OF_PERICENTER = 208.4270
MEAN_ANOMALY   = 221.5642

EPHEMERIS_TYPE = 0
CLASSIFICATION_TYPE = U
NORAD_CAT_ID   = 15772
ELEMENT_SET_NO = 999
REV_AT_EPOCH   = 10713
BSTAR          = .4891635E-4
MEAN_MOTION_DOT = .61E-6
MEAN_MOTION_DDOT = 0

CCSDS_OMM_VERS = 2.0
CREATION_DATE  = 
ORIGINATOR     = 

OBJECT_NAME    = SL-14 R/B
OBJECT_ID      = 1985-069B
CENTER_NAME    = EARTH
REF_FRAME      = TEME
TIME_SYSTEM    = UTC
MEAN_ELEMENT_THEORY = SGP/SGP4

EPOCH          = 2026-01-17T12:23:08.203488
MEAN_MOTION    = 14.86366808
ECCENTRICITY   = .00188915
INCLINATION    = 82.5251
RA_OF_ASC_NODE = 73.0665
ARG_OF_PERICENTER = 6.8537
MEAN_ANOMALY   = 353.2934

EPHEMERIS_TYPE = 0
CLASSIFICATION_TYPE = U
NORAD_CAT_ID   = 15945
ELEMENT_SET_NO = 999
REV_AT_EPOCH   = 16523
BSTAR          = .38752777E-4
MEAN_MOTION_DOT = .367E-5
MEAN_MOTION_DDOT = 0

CCSDS_OMM_VERS = 2.0
CREATION_DATE  = 
ORIGINATOR     = 

OBJECT_NAME    = SL-16 R/B
OBJECT_ID      = 1985-097B
CENTER_NAME    = EARTH
REF_FRAME      = TEME
TIME_SYSTEM    = UTC
MEAN_ELEMENT_THEORY = SGP/SGP4

EPOCH          = 2026-01-17T15:28:56.930304
MEAN_MOTION    = 14.16591856
ECCENTRICITY   = .00088237
INCLINATION    = 71.0014
RA_OF_ASC_NODE = 248.0143
ARG_OF_PERICENTER = 319.9885
MEAN_ANOMALY   = 70.9099

EPHEMERIS_TYPE = 0
CLASSIFICATION_TYPE = U
NORAD_CAT_ID   = 16182
ELEMENT_SET_NO = 999
REV_AT_EPOCH   = 8000
BSTAR          = -.73053969E-4
MEAN_MOTION_DOT = -.194E-5
MEAN_MOTION_DDOT = 0

CCSDS_OMM_VERS = 2.0
CREATION_DATE  = 
ORIGINATOR     = 

OBJECT_NAME    = SL-14 R/B
OBJECT_ID      = 1986-006B
CENTER_NAME    = EARTH
REF_FRAME      = TEME
TIME_SYSTEM    = UTC
MEAN_ELEMENT_THEORY = SGP/SGP4

EPOCH          = 2026-01-17T12:09:07.215264
MEAN_MOTION    = 14.86724776
ECCENTRICITY   = .0078273
INCLINATION    = 82.5289
RA_OF_ASC_NODE = 307.9016
ARG_OF_PERICENTER = 82.4843
MEAN_ANOMALY   = 278.5257

EPHEMERIS_TYPE = 0
CLASSIFICATION_TYPE = U
NORAD_CAT_ID   = 16496
ELEMENT_SET_NO = 999
REV_AT_EPOCH   = 14160
BSTAR          = .62536013E-4
MEAN_MOTION_DOT = .616E-5
MEAN_MOTION_DDOT = 0

CCSDS_OMM_VERS = 2.0
CREATION_DATE  = 
ORIGINATOR     = 

OBJECT_NAME    = COSMOS 1743
OBJECT_ID      = 1986-034A
CENTER_NAME    = EARTH
REF_FRAME      = TEME
TIME_SYSTEM    = UTC
MEAN_ELEMENT_THEORY = SGP/SGP4

EPOCH          = 2026-01-17T08:14:34.308960
MEAN_MOTION    = 15.54548324
ECCENTRICITY   = .00054616
INCLINATION    = 82.5363
RA_OF_ASC_NODE = 127.5475
ARG_OF_PERICENTER = 120.9897
MEAN_ANOMALY   = 239.1894

EPHEMERIS_TYPE = 0
CLASSIFICATION_TYPE = U
NORAD_CAT_ID   = 16719
ELEMENT_SET_NO = 999
REV_AT_EPOCH   = 17226
BSTAR          = .54490131E-3
MEAN_MOTION_DOT = .36082E-3
MEAN_MOTION_DDOT = 0

